{
  "type": "FeatureCollection",
  "features": [
    {
      "type": "Feature",
      "properties": {
        "norad_id": 66645,
        "name": "SHENZHOU-22",
        "group": "last-30-days",
        "lat": 24.047338625641434,
        "lon": -4.558618701764742,
        "alt_km": 383.0076217689866,
        "timestamp": "2025-12-21T05:44:50.289920+00:00",
        "meta_object_name": "SHENZHOU-22",
        "meta_object_id": "2025-272A",
        "meta_epoch": "2025-12-20T23:26:14.890272",
        "meta_mean_motion": 15.59514827,
        "meta_eccentricity": 0.00077445,
        "meta_inclination": 41.4685,
        "meta_ra_of_asc_node": 326.6888,
        "meta_arg_of_pericenter": 103.1948,
        "meta_mean_anomaly": 256.9755,
        "meta_ephemeris_type": 0,
        "meta_classification_type": "U",
        "meta_norad_cat_id": 66645,
        "meta_element_set_no": 999,
        "meta_rev_at_epoch": 26519,
        "meta_bstar": 0.00017446348,
        "meta_mean_motion_dot": 0.00013949,
        "meta_mean_motion_ddot": 0,
        "tle_line1": "1 66645U 25272A   25354.97656123  .00013949  00000+0  17446-3 0  9993",
        "tle_line2": "2 66645  41.4685 326.6888 0007744 103.1948 256.9755 15.59514827265195"
      },
      "geometry": {
        "type": "Point",
        "coordinates": [
          -4.558618701764742,
          24.047338625641434
        ]
      }
    },
    {
      "type": "Feature",
      "properties": {
        "norad_id": 66647,
        "name": "COSMOS 2597 (RODNIK-S 22)",
        "group": "last-30-days",
        "lat": -65.91436367824288,
        "lon": -95.96797866699698,
        "alt_km": 1500.170101146432,
        "timestamp": "2025-12-21T05:44:50.289932+00:00",
        "meta_object_name": "COSMOS 2597 (RODNIK-S 22)",
        "meta_object_id": "2025-273A",
        "meta_epoch": "2025-12-20T22:22:26.113152",
        "meta_mean_motion": 12.41952057,
        "meta_eccentricity": 0.00076195,
        "meta_inclination": 82.4993,
        "meta_ra_of_asc_node": 281.362,
        "meta_arg_of_pericenter": 267.1821,
        "meta_mean_anomaly": 92.8386,
        "meta_ephemeris_type": 0,
        "meta_classification_type": "U",
        "meta_norad_cat_id": 66647,
        "meta_element_set_no": 999,
        "meta_rev_at_epoch": 315,
        "meta_bstar": 8.540061e-05,
        "meta_mean_motion_dot": 2.1e-07,
        "meta_mean_motion_ddot": 0,
        "tle_line1": "1 66647U 25273A   25354.93224668  .00000021  00000+0  85401-4 0  9991",
        "tle_line2": "2 66647  82.4993 281.3620 0007619 267.1821  92.8386 12.41952057  3159"
      },
      "geometry": {
        "type": "Point",
        "coordinates": [
          -95.96797866699698,
          -65.91436367824288
        ]
      }
    },
    {
      "type": "Feature",
      "properties": {
        "norad_id": 66648,
        "name": "COSMOS 2598 (RODNIK-S 23)",
        "group": "last-30-days",
        "lat": 7.707954844390864,
        "lon": -77.8170641629852,
        "alt_km": 1500.163665831261,
        "timestamp": "2025-12-21T05:44:50.289943+00:00",
        "meta_object_name": "COSMOS 2598 (RODNIK-S 23)",
        "meta_object_id": "2025-273B",
        "meta_epoch": "2025-12-20T21:58:47.908128",
        "meta_mean_motion": 12.43233486,
        "meta_eccentricity": 0.0008098,
        "meta_inclination": 82.5032,
        "meta_ra_of_asc_node": 281.3631,
        "meta_arg_of_pericenter": 217.2756,
        "meta_mean_anomaly": 142.7763,
        "meta_ephemeris_type": 0,
        "meta_classification_type": "U",
        "meta_norad_cat_id": 66648,
        "meta_element_set_no": 999,
        "meta_rev_at_epoch": 315,
        "meta_bstar": 8.5279593e-05,
        "meta_mean_motion_dot": 2.2e-07,
        "meta_mean_motion_ddot": 0,
        "tle_line1": "1 66648U 25273B   25354.91583227  .00000022  00000+0  85280-4 0  9995",
        "tle_line2": "2 66648  82.5032 281.3631 0008098 217.2756 142.7763 12.43233486  3156"
      },
      "geometry": {
        "type": "Point",
        "coordinates": [
          -77.8170641629852,
          7.707954844390864
        ]
      }
    },
    {
      "type": "Feature",
      "properties": {
        "norad_id": 66649,
        "name": "COSMOS 2599 (RODNIK-S 24)",
        "group": "last-30-days",
        "lat": -68.56599133232116,
        "lon": 120.79190945070422,
        "alt_km": 1504.0886039802526,
        "timestamp": "2025-12-21T05:44:50.289953+00:00",
        "meta_object_name": "COSMOS 2599 (RODNIK-S 24)",
        "meta_object_id": "2025-273C",
        "meta_epoch": "2025-12-20T22:36:03.685248",
        "meta_mean_motion": 12.41150999,
        "meta_eccentricity": 0.00062589,
        "meta_inclination": 82.505,
        "meta_ra_of_asc_node": 281.3853,
        "meta_arg_of_pericenter": 258.3792,
        "meta_mean_anomaly": 101.6584,
        "meta_ephemeris_type": 0,
        "meta_classification_type": "U",
        "meta_norad_cat_id": 66649,
        "meta_element_set_no": 999,
        "meta_rev_at_epoch": 315,
        "meta_bstar": 0.00010170582,
        "meta_mean_motion_dot": 2.4e-07,
        "meta_mean_motion_ddot": 0,
        "tle_line1": "1 66649U 25273C   25354.94170932  .00000024  00000+0  10171-3 0  9992",
        "tle_line2": "2 66649  82.5050 281.3853 0006258 258.3792 101.6584 12.41150999  3155"
      },
      "geometry": {
        "type": "Point",
        "coordinates": [
          120.79190945070422,
          -68.56599133232116
        ]
      }
    },
    {
      "type": "Feature",
      "properties": {
        "norad_id": 66650,
        "name": "BEE-1000",
        "group": "last-30-days",
        "lat": -7.519394674000684,
        "lon": 101.24258940389781,
        "alt_km": 590.3069013755357,
        "timestamp": "2025-12-21T05:44:50.289964+00:00",
        "meta_object_name": "BEE-1000",
        "meta_object_id": "2025-274A",
        "meta_epoch": "2025-12-20T19:14:57.709248",
        "meta_mean_motion": 14.91685415,
        "meta_eccentricity": 0.0010777,
        "meta_inclination": 97.7403,
        "meta_ra_of_asc_node": 281.8419,
        "meta_arg_of_pericenter": 221.4492,
        "meta_mean_anomaly": 138.591,
        "meta_ephemeris_type": 0,
        "meta_classification_type": "U",
        "meta_norad_cat_id": 66650,
        "meta_element_set_no": 999,
        "meta_rev_at_epoch": 360,
        "meta_bstar": 0.00010750782,
        "meta_mean_motion_dot": 1.026e-05,
        "meta_mean_motion_ddot": 0,
        "tle_line1": "1 66650U 25274A   25354.80205682  .00001026  00000+0  10751-3 0  9998",
        "tle_line2": "2 66650  97.7403 281.8419 0010777 221.4492 138.5910 14.91685415  3604"
      },
      "geometry": {
        "type": "Point",
        "coordinates": [
          101.24258940389781,
          -7.519394674000684
        ]
      }
    },
    {
      "type": "Feature",
      "properties": {
        "norad_id": 66651,
        "name": "2025-274B",
        "group": "last-30-days",
        "lat": -17.08465436037169,
        "lon": 99.87793695789544,
        "alt_km": 589.9593206251366,
        "timestamp": "2025-12-21T05:44:50.289976+00:00",
        "meta_object_name": "2025-274B",
        "meta_object_id": "2025-274B",
        "meta_epoch": "2025-12-20T20:49:01.714944",
        "meta_mean_motion": 14.91848965,
        "meta_eccentricity": 0.00110786,
        "meta_inclination": 97.7398,
        "meta_ra_of_asc_node": 281.9083,
        "meta_arg_of_pericenter": 220.1238,
        "meta_mean_anomaly": 139.9164,
        "meta_ephemeris_type": 0,
        "meta_classification_type": "U",
        "meta_norad_cat_id": 66651,
        "meta_element_set_no": 999,
        "meta_rev_at_epoch": 361,
        "meta_bstar": 0.0002356973,
        "meta_mean_motion_dot": 2.326e-05,
        "meta_mean_motion_ddot": 0,
        "tle_line1": "1 66651U 25274B   25354.86738096  .00002326  00000+0  23570-3 0  9992",
        "tle_line2": "2 66651  97.7398 281.9083 0011078 220.1238 139.9164 14.91848965  3613"
      },
      "geometry": {
        "type": "Point",
        "coordinates": [
          99.87793695789544,
          -17.08465436037169
        ]
      }
    },
    {
      "type": "Feature",
      "properties": {
        "norad_id": 66652,
        "name": "2025-274C",
        "group": "last-30-days",
        "lat": -27.619874450157624,
        "lon": 98.19873365822454,
        "alt_km": 590.6779862987269,
        "timestamp": "2025-12-21T05:44:50.289986+00:00",
        "meta_object_name": "2025-274C",
        "meta_object_id": "2025-274C",
        "meta_epoch": "2025-12-20T17:33:02.810592",
        "meta_mean_motion": 14.91940961,
        "meta_eccentricity": 0.00106091,
        "meta_inclination": 97.7402,
        "meta_ra_of_asc_node": 281.7806,
        "meta_arg_of_pericenter": 227.4927,
        "meta_mean_anomaly": 132.5397,
        "meta_ephemeris_type": 0,
        "meta_classification_type": "U",
        "meta_norad_cat_id": 66652,
        "meta_element_set_no": 999,
        "meta_rev_at_epoch": 359,
        "meta_bstar": 0.00018300041,
        "meta_mean_motion_dot": 1.798e-05,
        "meta_mean_motion_ddot": 0,
        "tle_line1": "1 66652U 25274C   25354.73128253  .00001798  00000+0  18300-3 0  9994",
        "tle_line2": "2 66652  97.7402 281.7806 0010609 227.4927 132.5397 14.91940961  3598"
      },
      "geometry": {
        "type": "Point",
        "coordinates": [
          98.19873365822454,
          -27.619874450157624
        ]
      }
    }
  ]
}